start=new Date('2023-03-21T00:00:00.000Z').valueOf();
sats=[{"REV_AT_EPOCH":"10452","GP_ID":"228546088","TIME_SYSTEM":"UTC","MEAN_MOTION_DDOT":"0.0000000000000","BSTAR":"0.00149660000000","CLASSIFICATION_TYPE":"U","ELEMENT_SET_NO":"999","CENTER_NAME":"EARTH","MEAN_MOTION":"15.06437689","TLE_LINE1":"1 48330U 21036BG  23079.84317418  .00022103  00000-0  14966-2 0  9993","EPHEMERIS_TYPE":"0","ARG_OF_PERICENTER":"105.5479","LAUNCH_DATE":"2021-04-29","OBJECT_TYPE":"PAYLOAD","MEAN_MOTION_DOT":"0.00022103","SITE":"AFETR","NORAD_CAT_ID":"48330","RCS_SIZE":"LARGE","OBJECT_ID":"2021-036BG","SEMIMAJOR_AXIS":"6925.233","MEAN_ANOMALY":"254.5580","EPOCH":"2023-03-20T20:14:10.249152","MEAN_ELEMENT_THEORY":"SGP4","DECAY_DATE":null,"COUNTRY_CODE":"US","OBJECT_NAME":"STARLINK-2501","PERIAPSIS":"546.658","FILE":"3866115","PERIOD":"95.590","TLE_LINE2":"2 48330  53.0517 291.6881 0000636 105.5479 254.5580 15.06437689104522","REF_FRAME":"TEME","ECCENTRICITY":"0.00006360","APOAPSIS":"547.538","RA_OF_ASC_NODE":"291.6881","INCLINATION":"53.0517"},{"FILE":"3866115","PERIAPSIS":"546.450","OBJECT_NAME":"STARLINK-2514","INCLINATION":"53.0509","APOAPSIS":"547.580","ECCENTRICITY":"0.00008160","RA_OF_ASC_NODE":"291.7051","REF_FRAME":"TEME","TLE_LINE2":"2 48331  53.0509 291.7051 0000816  73.9297 286.1782 15.06464839104522","PERIOD":"95.588","MEAN_ELEMENT_THEORY":"SGP4","MEAN_ANOMALY":"286.1782","EPOCH":"2023-03-20T20:08:50.774784","SEMIMAJOR_AXIS":"6925.150","OBJECT_ID":"2021-036BH","COUNTRY_CODE":"US","DECAY_DATE":null,"OBJECT_TYPE":"PAYLOAD","LAUNCH_DATE":"2021-04-29","ARG_OF_PERICENTER":"73.9297","EPHEMERIS_TYPE":"0","TLE_LINE1":"1 48331U 21036BH  23079.83947656  .00023583  00000-0  15940-2 0  9992","MEAN_MOTION":"15.06464839","RCS_SIZE":"LARGE","NORAD_CAT_ID":"48331","SITE":"AFETR","MEAN_MOTION_DOT":"0.00023583","MEAN_MOTION_DDOT":"0.0000000000000","ELEMENT_SET_NO":"999","CLASSIFICATION_TYPE":"U","BSTAR":"0.00159400000000","TIME_SYSTEM":"UTC","GP_ID":"228545838","REV_AT_EPOCH":"10452","CENTER_NAME":"EARTH"},{"CENTER_NAME":"EARTH","CLASSIFICATION_TYPE":"U","MEAN_MOTION_DDOT":"0.0000000000000","ELEMENT_SET_NO":"999","BSTAR":"0.00131030000000","TIME_SYSTEM":"UTC","REV_AT_EPOCH":"10451","GP_ID":"228547090","NORAD_CAT_ID":"48332","RCS_SIZE":"LARGE","MEAN_MOTION_DOT":"0.00019308","SITE":"AFETR","LAUNCH_DATE":"2021-04-29","ARG_OF_PERICENTER":"79.0353","OBJECT_TYPE":"PAYLOAD","EPHEMERIS_TYPE":"0","MEAN_MOTION":"15.06434830","TLE_LINE1":"1 48332U 21036BJ  23079.77220741  .00019308  00000-0  13103-2 0  9994","COUNTRY_CODE":"US","DECAY_DATE":null,"MEAN_ELEMENT_THEORY":"SGP4","MEAN_ANOMALY":"281.0763","EPOCH":"2023-03-20T18:31:58.720224","SEMIMAJOR_AXIS":"6925.242","OBJECT_ID":"2021-036BJ","INCLINATION":"53.0547","REF_FRAME":"TEME","APOAPSIS":"547.885","RA_OF_ASC_NODE":"292.0022","ECCENTRICITY":"0.00011240","PERIOD":"95.590","TLE_LINE2":"2 48332  53.0547 292.0022 0001124  79.0353 281.0763 15.06434830104510","FILE":"3866115","PERIAPSIS":"546.328","OBJECT_NAME":"STARLINK-2511"},{"MEAN_MOTION_DOT":"0.00026303","SITE":"AFETR","NORAD_CAT_ID":"48333","RCS_SIZE":"LARGE","MEAN_MOTION":"15.06439899","TLE_LINE1":"1 48333U 21036BK  23079.76580591  .00026303  00000-0  17762-2 0  9994","EPHEMERIS_TYPE":"0","ARG_OF_PERICENTER":"79.0261","LAUNCH_DATE":"2021-04-29","OBJECT_TYPE":"PAYLOAD","CENTER_NAME":"EARTH","GP_ID":"228546835","REV_AT_EPOCH":"10451","TIME_SYSTEM":"UTC","MEAN_MOTION_DDOT":"0.0000000000000","CLASSIFICATION_TYPE":"U","BSTAR":"0.00177620000000","ELEMENT_SET_NO":"999","TLE_LINE2":"2 48333  53.0514 292.0364 0001543  79.0261 281.0901 15.06439899104511","PERIOD":"95.590","REF_FRAME":"TEME","RA_OF_ASC_NODE":"292.0364","APOAPSIS":"548.160","ECCENTRICITY":"0.00015430","INCLINATION":"53.0514","OBJECT_NAME":"STARLINK-2518","PERIAPSIS":"546.023","FILE":"3866115","DECAY_DATE":null,"COUNTRY_CODE":"US","OBJECT_ID":"2021-036BK","SEMIMAJOR_AXIS":"6925.226","EPOCH":"2023-03-20T18:22:45.630624","MEAN_ANOMALY":"281.0901","MEAN_ELEMENT_THEORY":"SGP4"},{"EPOCH":"2023-03-20T18:17:24.586368","MEAN_ANOMALY":"248.4734","MEAN_ELEMENT_THEORY":"SGP4","OBJECT_ID":"2021-036BL","SEMIMAJOR_AXIS":"6925.236","COUNTRY_CODE":"US","DECAY_DATE":null,"PERIAPSIS":"546.258","FILE":"3866115","OBJECT_NAME":"STARLINK-2470","REF_FRAME":"TEME","RA_OF_ASC_NODE":"292.0501","APOAPSIS":"547.944","ECCENTRICITY":"0.00012170","INCLINATION":"53.0545","PERIOD":"95.590","TLE_LINE2":"2 48334  53.0545 292.0501 0001217 111.6385 248.4734 15.06436683104516","MEAN_MOTION_DDOT":"0.0000000000000","CLASSIFICATION_TYPE":"U","ELEMENT_SET_NO":"999","BSTAR":"0.00118710000000","GP_ID":"228545588","REV_AT_EPOCH":"10451","TIME_SYSTEM":"UTC","CENTER_NAME":"EARTH","ARG_OF_PERICENTER":"111.6385","LAUNCH_DATE":"2021-04-29","OBJECT_TYPE":"PAYLOAD","MEAN_MOTION":"15.06436683","TLE_LINE1":"1 48334U 21036BL  23079.76209012  .00017462  00000-0  11871-2 0  9992","EPHEMERIS_TYPE":"0","NORAD_CAT_ID":"48334","RCS_SIZE":"LARGE","MEAN_MOTION_DOT":"0.00017462","SITE":"AFETR"},{"MEAN_MOTION_DOT":"0.00022664","SITE":"AFETR","NORAD_CAT_ID":"48335","RCS_SIZE":"LARGE","EPHEMERIS_TYPE":"0","MEAN_MOTION":"15.06443991","TLE_LINE1":"1 48335U 21036BM  23079.75842359  .00022664  00000-0  15337-2 0  9990","LAUNCH_DATE":"2021-04-29","ARG_OF_PERICENTER":"69.7231","OBJECT_TYPE":"PAYLOAD","CENTER_NAME":"EARTH","TIME_SYSTEM":"UTC","GP_ID":"228546339","REV_AT_EPOCH":"10451","MEAN_MOTION_DDOT":"0.0000000000000","ELEMENT_SET_NO":"999","CLASSIFICATION_TYPE":"U","BSTAR":"0.00153370000000","PERIOD":"95.589","TLE_LINE2":"2 48335  53.0530 292.0616 0001327  69.7231 290.3901 15.06443991104515","INCLINATION":"53.0530","REF_FRAME":"TEME","APOAPSIS":"547.998","ECCENTRICITY":"0.00013270","RA_OF_ASC_NODE":"292.0616","OBJECT_NAME":"STARLINK-2441","FILE":"3866115","PERIAPSIS":"546.160","DECAY_DATE":null,"COUNTRY_CODE":"US","SEMIMAJOR_AXIS":"6925.214","OBJECT_ID":"2021-036BM","MEAN_ELEMENT_THEORY":"SGP4","MEAN_ANOMALY":"290.3901","EPOCH":"2023-03-20T18:12:07.798176"},{"TIME_SYSTEM":"UTC","REV_AT_EPOCH":"10348","GP_ID":"228547092","MEAN_MOTION_DDOT":"0.0000000000000","CLASSIFICATION_TYPE":"U","ELEMENT_SET_NO":"999","BSTAR":"0.00211690000000","CENTER_NAME":"EARTH","EPHEMERIS_TYPE":"0","TLE_LINE1":"1 48353U 21038A   23079.63124917  .00031432  00000-0  21169-2 0  9995","MEAN_MOTION":"15.06448364","OBJECT_TYPE":"PAYLOAD","LAUNCH_DATE":"2021-05-04","ARG_OF_PERICENTER":"93.2021","SITE":"AFETR","MEAN_MOTION_DOT":"0.00031432","RCS_SIZE":"LARGE","NORAD_CAT_ID":"48353","SEMIMAJOR_AXIS":"6925.200","OBJECT_ID":"2021-038A","MEAN_ELEMENT_THEORY":"SGP4","MEAN_ANOMALY":"266.9084","EPOCH":"2023-03-20T15:08:59.928288","DECAY_DATE":null,"COUNTRY_CODE":"US","OBJECT_NAME":"STARLINK-2613","FILE":"3866115","PERIAPSIS":"546.365","TLE_LINE2":"2 48353  53.0529 192.6357 0001011  93.2021 266.9084 15.06448364103484","PERIOD":"95.589","INCLINATION":"53.0529","RA_OF_ASC_NODE":"192.6357","APOAPSIS":"547.765","ECCENTRICITY":"0.00010110","REF_FRAME":"TEME"},{"OBJECT_TYPE":"PAYLOAD","LAUNCH_DATE":"2021-05-04","ARG_OF_PERICENTER":"82.7616","TLE_LINE1":"1 48354U 21038B   23079.69388267  .00035354  00000-0  23760-2 0  9998","MEAN_MOTION":"15.06470281","EPHEMERIS_TYPE":"0","NORAD_CAT_ID":"48354","RCS_SIZE":"LARGE","SITE":"AFETR","MEAN_MOTION_DOT":"0.00035354","MEAN_MOTION_DDOT":"0.0000000000000","CLASSIFICATION_TYPE":"U","ELEMENT_SET_NO":"999","BSTAR":"0.00237600000000","REV_AT_EPOCH":"10349","GP_ID":"228546837","TIME_SYSTEM":"UTC","CENTER_NAME":"EARTH","PERIAPSIS":"546.133","FILE":"3866115","OBJECT_NAME":"STARLINK-2674","APOAPSIS":"547.863","ECCENTRICITY":"0.00012490","RA_OF_ASC_NODE":"192.3508","REF_FRAME":"TEME","INCLINATION":"53.0548","PERIOD":"95.588","TLE_LINE2":"2 48354  53.0548 192.3508 0001249  82.7616 277.3515 15.06470281103496","MEAN_ANOMALY":"277.3515","EPOCH":"2023-03-20T16:39:11.462688","MEAN_ELEMENT_THEORY":"SGP4","OBJECT_ID":"2021-038B","SEMIMAJOR_AXIS":"6925.133","COUNTRY_CODE":"US","DECAY_DATE":null},{"TLE_LINE1":"1 48355U 21038C   23079.62387330  .00033079  00000-0  22256-2 0  9993","MEAN_MOTION":"15.06459833","EPHEMERIS_TYPE":"0","OBJECT_TYPE":"PAYLOAD","ARG_OF_PERICENTER":"94.8369","LAUNCH_DATE":"2021-05-04","SITE":"AFETR","MEAN_MOTION_DOT":"0.00033079","NORAD_CAT_ID":"48355","RCS_SIZE":"LARGE","GP_ID":"228545590","REV_AT_EPOCH":"10348","TIME_SYSTEM":"UTC","MEAN_MOTION_DDOT":"0.0000000000000","ELEMENT_SET_NO":"999","CLASSIFICATION_TYPE":"U","BSTAR":"0.00222560000000","CENTER_NAME":"EARTH","OBJECT_NAME":"STARLINK-2635","PERIAPSIS":"546.068","FILE":"3866115","TLE_LINE2":"2 48355  53.0529 192.6687 0001390  94.8369 265.2779 15.06459833103480","PERIOD":"95.588","ECCENTRICITY":"0.00013900","APOAPSIS":"547.993","RA_OF_ASC_NODE":"192.6687","REF_FRAME":"TEME","INCLINATION":"53.0529","OBJECT_ID":"2021-038C","SEMIMAJOR_AXIS":"6925.165","MEAN_ANOMALY":"265.2779","EPOCH":"2023-03-20T14:58:22.653120","MEAN_ELEMENT_THEORY":"SGP4","DECAY_DATE":null,"COUNTRY_CODE":"US"},{"CENTER_NAME":"EARTH","BSTAR":"0.00224600000000","MEAN_MOTION_DDOT":"0.0000000000000","ELEMENT_SET_NO":"999","CLASSIFICATION_TYPE":"U","TIME_SYSTEM":"UTC","GP_ID":"228546341","REV_AT_EPOCH":"10348","NORAD_CAT_ID":"48356","RCS_SIZE":"LARGE","SITE":"AFETR","MEAN_MOTION_DOT":"0.00033425","OBJECT_TYPE":"PAYLOAD","LAUNCH_DATE":"2021-05-04","ARG_OF_PERICENTER":"90.8457","EPHEMERIS_TYPE":"0","TLE_LINE1":"1 48356U 21038D   23079.62014130  .00033425  00000-0  22460-2 0  9991","MEAN_MOTION":"15.06502902","COUNTRY_CODE":"US","DECAY_DATE":null,"MEAN_ELEMENT_THEORY":"SGP4","EPOCH":"2023-03-20T14:53:00.208320","MEAN_ANOMALY":"269.2685","SEMIMAJOR_AXIS":"6925.033","OBJECT_ID":"2021-038D","INCLINATION":"53.0538","ECCENTRICITY":"0.00013380","APOAPSIS":"547.825","RA_OF_ASC_NODE":"192.6854","REF_FRAME":"TEME","PERIOD":"95.586","TLE_LINE2":"2 48356  53.0538 192.6854 0001338  90.8457 269.2685 15.06502902103489","FILE":"3866115","PERIAPSIS":"545.972","OBJECT_NAME":"STARLINK-2637"}];
